NORAD_CAT_ID,OBJECT_NAME,OBJECT_TYPE,EPOCH,MEAN_MOTION,ECCENTRICITY,INCLINATION,RA_OF_ASC_NODE,ARG_OF_PERICENTER,MEAN_ANOMALY,BSTAR,MEAN_MOTION_DOT,MEAN_MOTION_DDOT,TLE_LINE0,TLE_LINE1,TLE_LINE2,SEMIMAJOR_AXIS,PERIOD,APOGEE,PERIGEE,DECAYED
52690.0,STARLINK-4035,PAYLOAD,2024-06-06 06:19:49,15.08838208,0.000133,53.2161,143.5923,83.9325,276.1818,1.3433e-05,-7.4e-07,0.0,0 STARLINK-4035,1 52690U 22053AL  24158.26377122 -.00000074  00000-0  13433-4 0  9994,2 52690  53.2161 143.5923 0001330  83.9325 276.1818 15.08838208114288,6917.886,95.438,540.671,538.831,0.0
52690.0,STARLINK-4035,PAYLOAD,2024-06-07 07:46:00,15.08836957,0.00014,53.2167,138.8352,88.9425,271.1728,5.7015e-06,-1.97e-06,0.0,0 STARLINK-4035,1 52690U 22053AL  24159.32361442 -.00000197  00000-0  57015-5 0  9991,2 52690  53.2167 138.8352 0001400  88.9425 271.1728 15.08836957114072,6917.89,95.438,540.723,538.786,0.0
52690.0,STARLINK-4035,PAYLOAD,2024-06-07 22:04:28,15.08836653,0.0001398,53.2167,136.1587,85.9568,274.1583,6.8696e-05,8.05e-06,0.0,0 STARLINK-4035,1 52690U 22053AL  24159.91977404  .00000805  00000-0  68696-4 0  9998,2 52690  53.2167 136.1587 0001398  85.9568 274.1583 15.08836653114530,6917.891,95.438,540.723,538.788,0.0
52690.0,STARLINK-4035,PAYLOAD,2024-06-08 10:47:32,15.0884789,0.0001429,53.2168,133.7796,85.549,274.5666,0.0001192,1.61e-05,0.0,0 STARLINK-4035,1 52690U 22053AL  24160.44968566  .00001610  00000-0  11920-3 0  9999,2 52690  53.2168 133.7796 0001429  85.5490 274.5666 15.08847890114611,6917.856,95.437,540.71,538.733,0.0
52690.0,STARLINK-4035,PAYLOAD,2024-06-08 15:33:42,15.088521,0.0001267,53.216,132.8849,86.4741,273.6396,-0.00014079,-2.529e-05,0.0,0 STARLINK-4035,1 52690U 22053AL  24160.64840850 -.00002529  00000-0 -14079-3 0  9996,2 52690  53.2160 132.8849 0001267  86.4741 273.6396 15.08852100114273,6917.843,95.437,540.585,538.832,0.0
52690.0,STARLINK-4035,PAYLOAD,2024-06-09 04:16:48,15.08836821,0.0001528,53.2156,130.5063,93.7361,266.3806,3.8442e-05,3.24e-06,0.0,0 STARLINK-4035,1 52690U 22053AL  24161.17833586  .00000324  00000-0  38442-4 0  9993,2 52690  53.2156 130.5063 0001528  93.7361 266.3806 15.08836821114356,6917.89,95.438,540.812,538.698,0.0
52690.0,STARLINK-4035,PAYLOAD,2024-06-09 21:46:02,15.08838239,0.0001411,53.2165,127.2366,91.529,268.5864,3.1311e-05,2.1e-06,0.0,0 STARLINK-4035,1 52690U 22053AL  24161.90697657  .00000210  00000-0  31311-4 0  9993,2 52690  53.2165 127.2366 0001411  91.5290 268.5864 15.08838239114839,6917.886,95.438,540.727,538.775,0.0
52690.0,STARLINK-4035,PAYLOAD,2024-06-10 04:07:35,15.08844056,0.0001371,53.2165,126.0465,100.0445,260.0702,2.7092e-05,1.43e-06,0.0,0 STARLINK-4035,1 52690U 22053AL  24162.17193298  .00000143  00000-0  27092-4 0  9991,2 52690  53.2165 126.0465 0001371 100.0445 260.0702 15.08844056114875,6917.868,95.437,540.681,538.785,0.0
52690.0,STARLINK-4035,PAYLOAD,2024-06-11 03:58:22,15.08837085,0.000131,53.2164,121.5869,91.272,268.8422,6.5378e-05,7.53e-06,0.0,0 STARLINK-4035,1 52690U 22053AL  24163.16553837  .00000753  00000-0  65378-4 0  9996,2 52690  53.2164 121.5869 0001310  91.2720 268.8422 15.08837085114657,6917.889,95.438,540.661,538.848,0.0
52690.0,STARLINK-4035,PAYLOAD,2024-06-11 07:09:08,15.08839393,0.0001317,53.2161,120.9937,88.2739,271.8404,7.771e-05,9.49e-06,0.0,0 STARLINK-4035,1 52690U 22053AL  24163.29801719  .00000949  00000-0  77710-4 0  9995,2 52690  53.2161 120.9937 0001317  88.2739 271.8404 15.08839393115048,6917.882,95.438,540.658,538.836,0.0
52690.0,STARLINK-4035,PAYLOAD,2024-06-12 03:49:09,15.08845779,0.0001282,53.2165,117.1268,87.2209,272.893,7.7959e-05,9.53e-06,0.0,0 STARLINK-4035,1 52690U 22053AL  24164.15913391  .00000953  00000-0  77959-4 0  9991,2 52690  53.2165 117.1268 0001282  87.2209 272.8930 15.08845779114802,6917.863,95.437,540.615,538.841,0.0
52690.0,STARLINK-4035,PAYLOAD,2024-06-12 21:18:24,15.08840848,0.000222,53.2164,113.8553,81.0744,279.05,6.9838e-05,8.23e-06,0.0,0 STARLINK-4035,1 52690U 22053AL  24164.88778088  .00000823  00000-0  69838-4 0  9996,2 52690  53.2164 113.8553 0002220  81.0744 279.0500 15.08840848114916,6917.878,95.438,541.279,538.207,0.0
52690.0,STARLINK-4035,PAYLOAD,2024-06-13 03:39:57,15.0883268,0.0001471,53.2167,112.6681,89.9271,270.1889,-4.9919e-06,-3.67e-06,0.0,0 STARLINK-4035,1 52690U 22053AL  24165.15274778 -.00000367  00000-0 -49919-5 0  9998,2 52690  53.2167 112.6681 0001471  89.9271 270.1889 15.08832680114958,6917.903,95.438,540.785,538.75,0.0
52690.0,STARLINK-4035,PAYLOAD,2024-06-13 13:12:16,15.0883524,0.0001534,53.2172,110.8838,91.3385,268.7783,9.7198e-06,-1.33e-06,0.0,0 STARLINK-4035,1 52690U 22053AL  24165.55018706 -.00000133  00000-0  97198-5 0  9991,2 52690  53.2172 110.8838 0001534  91.3385 268.7783 15.08835240115380,6917.895,95.438,540.821,538.699,0.0
52690.0,STARLINK-4035,PAYLOAD,2024-06-14 13:03:02,15.08845108,0.0001598,53.218,106.4244,109.139,250.9776,2.3772e-05,9e-07,0.0,0 STARLINK-4035,1 52690U 22053AL  24166.54378132  .00000090  00000-0  23772-4 0  9990,2 52690  53.2180 106.4244 0001598 109.1390 250.9776 15.08845108115531,6917.865,95.437,540.835,538.624,0.0
52690.0,STARLINK-4035,PAYLOAD,2024-06-15 12:53:50,15.08841293,0.0001548,53.2171,101.9626,88.0626,272.0544,0.00010892,1.446e-05,0.0,0 STARLINK-4035,1 52690U 22053AL  24167.53738549  .00001446  00000-0  10892-3 0  9996,2 52690  53.2171 101.9626 0001548  88.0626 272.0544 15.08841293115682,6917.876,95.437,540.812,538.671,0.0
52690.0,STARLINK-4035,PAYLOAD,2024-06-15 22:26:09,15.08839141,0.0001597,53.2168,100.1774,89.4843,270.6332,8.1151e-05,1.004e-05,0.0,0 STARLINK-4035,1 52690U 22053AL  24167.93482761  .00001004  00000-0  81151-4 0  9999,2 52690  53.2168 100.1774 0001597  89.4843 270.6332 15.08839141115748,6917.883,95.438,540.853,538.643,0.0
52690.0,STARLINK-4035,PAYLOAD,2024-06-16 03:12:17,15.08849722,0.0001378,53.2167,99.2857,89.8532,270.2618,0.00010168,1.331e-05,0.0,0 STARLINK-4035,1 52690U 22053AL  24168.13354010  .00001331  00000-0  10168-3 0  9999,2 52690  53.2167  99.2857 0001378  89.8532 270.2618 15.08849722115775,6917.851,95.437,540.669,538.762,0.0
52690.0,STARLINK-4035,PAYLOAD,2024-06-16 19:06:09,15.08836679,0.0001344,53.2162,96.3146,88.3266,271.788,4.5539e-05,4.37e-06,0.0,0 STARLINK-4035,1 52690U 22053AL  24168.79594906  .00000437  00000-0  45539-4 0  9998,2 52690  53.2162  96.3146 0001344  88.3266 271.7880 15.08836679115875,6917.891,95.438,540.685,538.826,0.0
52690.0,STARLINK-4035,PAYLOAD,2024-06-17 22:07:42,15.08842673,0.0001514,53.2171,91.2556,90.4702,269.6463,9.1615e-05,1.17e-05,0.0,0 STARLINK-4035,1 52690U 22053AL  24169.92202455  .00001170  00000-0  91615-4 0  9990,2 52690  53.2171  91.2556 0001514  90.4702 269.6463 15.08842673116046,6917.872,95.437,540.785,538.69,0.0
52690.0,STARLINK-4035,PAYLOAD,2024-06-18 04:29:14,15.08854634,0.0001459,53.2176,90.0658,104.2131,255.9023,1.192e-05,-9.8e-07,0.0,0 STARLINK-4035,1 52690U 22053AL  24170.18697702 -.00000098  00000-0  11920-4 0  9993,2 52690  53.2176  90.0658 0001459 104.2131 255.9023 15.08854634115712,6917.836,95.437,540.71,538.691,0.0
52690.0,STARLINK-4035,PAYLOAD,2024-06-19 01:09:15,15.0884402,0.0001471,53.2174,86.1996,89.8471,270.269,0.00010349,1.36e-05,0.0,0 STARLINK-4035,1 52690U 22053AL  24171.04810153  .00001360  00000-0  10349-3 0  9991,2 52690  53.2174  86.1996 0001471  89.8471 270.2690 15.08844020115842,6917.868,95.437,540.751,538.715,0.0
52690.0,STARLINK-4035,PAYLOAD,2024-06-19 21:49:17,15.08836426,0.0001474,53.2175,82.3326,96.4751,263.6409,-4.8787e-05,-1.064e-05,0.0,0 STARLINK-4035,1 52690U 22053AL  24171.90923034 -.00001064  00000-0 -48787-4 0  9990,2 52690  53.2175  82.3326 0001474  96.4751 263.6409 15.08836426116347,6917.891,95.438,540.776,538.737,0.0
52690.0,STARLINK-4035,PAYLOAD,2024-06-20 10:32:22,15.08841794,0.0001495,53.2182,79.9584,94.7698,265.3465,-5.8078e-05,-1.212e-05,0.0,0 STARLINK-4035,1 52690U 22053AL  24172.43914763 -.00001212  00000-0 -58078-4 0  9997,2 52690  53.2182  79.9584 0001495  94.7698 265.3465 15.08841794116421,6917.875,95.437,540.774,538.706,0.0
52690.0,STARLINK-4035,PAYLOAD,2024-06-20 21:40:05,15.0883259,0.0001713,53.2191,77.8817,104.9776,255.1406,-5.6243e-05,-1.183e-05,0.0,0 STARLINK-4035,1 52690U 22053AL  24172.90283662 -.00001183  00000-0 -56243-4 0  9995,2 52690  53.2191  77.8817 0001713 104.9776 255.1406 15.08832590116494,6917.903,95.438,540.953,538.583,0.0
52690.0,STARLINK-4035,PAYLOAD,2024-06-20 23:15:28,15.08831538,0.0001657,53.2192,77.5833,92.5449,267.5733,-7.1131e-05,-1.42e-05,0.0,0 STARLINK-4035,1 52690U 22053AL  24172.96907866 -.00001420  00000-0 -71131-4 0  9997,2 52690  53.2192  77.5833 0001657  92.5449 267.5733 15.08831538116138,6917.906,95.438,540.918,538.625,0.0
52690.0,STARLINK-4035,PAYLOAD,2024-06-21 04:01:37,15.08835122,0.0001645,53.2186,76.6856,95.328,264.7899,-4.488e-05,-1.002e-05,0.0,0 STARLINK-4035,1 52690U 22053AL  24173.16779478 -.00001002  00000-0 -44880-4 0  9993,2 52690  53.2186  76.6856 0001645  95.3280 264.7899 15.08835122116536,6917.895,95.438,540.898,538.622,0.0
52690.0,STARLINK-4035,PAYLOAD,2024-06-21 21:30:51,15.08838679,0.0001817,53.2195,73.4167,112.3381,247.7804,8.3189e-05,1.036e-05,0.0,0 STARLINK-4035,1 52690U 22053AL  24173.89643170  .00001036  00000-0  83189-4 0  9992,2 52690  53.2195  73.4167 0001817 112.3381 247.7804 15.08838679116277,6917.884,95.438,541.006,538.492,0.0
52690.0,STARLINK-4035,PAYLOAD,2024-06-22 00:41:37,15.08843244,0.0001637,53.2187,72.8199,100.3156,259.802,0.00011942,1.613e-05,0.0,0 STARLINK-4035,1 52690U 22053AL  24174.02890887  .00001613  00000-0  11942-3 0  9995,2 52690  53.2187  72.8199 0001637 100.3156 259.8020 15.08843244116664,6917.87,95.437,540.868,538.603,0.0
52690.0,STARLINK-4035,PAYLOAD,2024-06-22 21:21:40,15.08805624,0.0001392,53.2179,68.954,107.5827,252.5317,0.00051509,7.912e-05,0.0,0 STARLINK-4035,1 52690U 22053AL  24174.89004717  .00007912  00000-0  51509-3 0  9990,2 52690  53.2179  68.9540 0001392 107.5827 252.5317 15.08805624116426,6917.985,95.44,540.813,538.887,0.0
